SL-14 R/B               
1 20511U 90018B   26183.53823203  .00000478  00000+0  56879-4 0  9990
2 20511  82.5221 115.7602 0017660  75.4384 284.8788 14.82227004939594
HST                     
1 20580U 90037B   26183.72415950  .00007907  00000+0  24931-3 0  9991
2 20580  28.4736 334.3758 0001625 336.7387  23.3136 15.30934799790959
SL-16 R/B               
1 20625U 90046B   26183.64161286 -.00000226  00000+0 -92201-4 0  9997
2 20625  70.9991  56.4917 0012524 136.5511 223.6601 14.15024278864653
COSMOS 2084             
1 20663U 90055A   26183.73014205  .00002694  00000+0  19658-3 0  9990
2 20663  62.7914 303.0379 0006661 304.3354  55.7115 15.06182831953640
SL-6 R/B(2)             
1 20666U 90055D   26183.60710346  .00001719  00000+0  13597-3 0  9991
2 20666  62.7804 222.9023 0043142   7.2205 352.9506 15.04050645955479
SL-8 R/B                
1 20775U 90078B   26183.61258568  .00026217  00000+0  74196-3 0  9993
2 20775  82.9028 147.6992 0346316 346.3476  12.8548 14.93107295826427
SL-8 R/B                
1 21088U 91006B   26183.74194167  .00000094  00000+0  78423-4 0  9994
2 21088  82.9421  84.4624 0023849  73.5424 294.3875 13.77507515779918
OKEAN-3                 
1 21397U 91039A   26183.55991632  .00002321  00000+0  15980-3 0  9997
2 21397  82.5147 225.4744 0012293 301.1364  58.8656 15.05391663882313
COSMOS 2151             
1 21422U 91042A   26183.73140771  .00001677  00000+0  13086-3 0  9998
2 21422  82.4972 332.6786 0013090  36.4632 323.7481 15.00483919880449
SL-14 R/B               
1 21423U 91042B   26183.75057512  .00000425  00000+0  50727-4 0  9995
2 21423  82.4935 112.3015 0015925 218.9673 141.0395 14.81912258870117
ERS-1                   
1 21574U 91050A   26183.66496897  .00000403  00000+0  14318-3 0  9995
2 21574  98.7793 204.7410 0031186 219.4827 140.4087 14.39527701832279
ARIANE 40 R/B           
1 21610U 91050F   26183.58173455  .00000332  00000+0  11164-3 0  9996
2 21610  98.1867 231.3985 0004462  88.4058 271.7644 14.42966176835565
INTERCOSMOS 25          
1 21819U 91086A   26183.54655799  .00000800  00000+0  15824-3 0  9995
2 21819  82.6030 240.5154 1484039 229.2268 117.0478 12.12220272510604
SL-8 R/B                
1 21876U 92008B   26183.78251360  .00000148  00000+0  13619-3 0  9990
2 21876  82.9260 182.1918 0034893 170.7148   2.3722 13.75981055725248
SL-8 R/B                
1 21938U 92020B   26183.61078595  .00000052  00000+0  38698-4 0  9991
2 21938  82.9297  68.4009 0028666 339.7378  34.5129 13.75550105716939
USA 81                  
1 21949U 92023A   26183.64320426  .00000191  00000+0  63350-4 0  9999
2 21949  85.0063  65.0864 0002472  71.4644 288.6817 14.32402314111242
COSMOS 2219             
1 22219U 92076A   26183.61135272  .00000130  00000+0  92773-4 0  9992
2 22219  71.0608 137.8281 0017453  17.9371 342.2364 14.14109078734629
SL-16 R/B               
1 22220U 92076B   26183.79334601 -.00000166  00000+0 -58521-4 0  9994
2 22220  71.0013 305.9057 0015061 278.1586 244.3289 14.16874363738138
COSMOS 2221             
1 22236U 92080A   26183.45044647  .00001762  00000+0  15227-3 0  9993
2 22236  82.5034 169.1406 0014705 160.1512 200.0285 14.96574411797955
SL-16 R/B               
1 22285U 92093B   26183.78973654  .00000274  00000+0  16465-3 0  9998
2 22285  71.0216 122.6372 0003073 159.3034 200.8214 14.15464775729446
COSMOS 2228             
1 22286U 92094A   26183.78912907  .00002250  00000+0  18977-3 0  9990
2 22286  82.5185 127.0987 0015967 275.2977  84.6424 14.97643081793282
SL-16 R/B               
1 22566U 93016B   26183.70074367 -.00000270  00000+0 -11400-3 0  9993
2 22566  71.0088 333.6227 0009242 160.3259 199.8222 14.15313775718440
COSMOS 2242             
1 22626U 93024A   26183.42150521  .00002009  00000+0  17234-3 0  9996
2 22626  82.5188 156.9673 0014400 280.6682  79.2919 14.96951798797559
SL-16 R/B               
1 22803U 93059B   26183.31178248  .00000255  00000+0  14971-3 0  9991
2 22803  70.9899 129.4088 0015957  29.0539 331.1469 14.17249604695775
ARIANE 40 R/B           
1 22830U 93061H   26183.63739199  .00000246  00000+0  10590-3 0  9990
2 22830  98.4813 250.1732 0009637 307.5881  52.4428 14.32914414710564
COSMOS 2278             
1 23087U 94023A   26183.73518179 -.00000212  00000+0 -85837-4 0  9990
2 23087  71.0547 294.3953 0010246 224.2860 135.7443 14.14396562661076
SL-16 R/B               
1 23088U 94023B   26183.73000916 -.00000222  00000+0 -90133-4 0  9992
2 23088  70.9979 189.2900 0001757 168.9730 191.1432 14.15026270662369
SL-16 R/B               
1 23343U 94074B   26183.71648323  .00000509  00000+0  74586-4 0  9990
2 23343  97.6985 209.7900 0006060 193.8631 301.4990 14.79515903704259
SL-16 R/B               
1 23405U 94077B   26183.73740213 -.00000099  00000+0 -26025-4 0  9996
2 23405  70.9833 110.4485 0003849 313.5957  46.4846 14.15578070632513
ARIANE 40+ R/B          
1 23561U 95021B   26183.70825110  .00000320  00000+0  11562-3 0  9990
2 23561  98.4407 253.5587 0007417 149.0613   5.8042 14.39842137635790
SL-16 R/B               
1 23705U 95058B   26183.74991612 -.00000239  00000+0 -97634-4 0  9991
2 23705  71.0227 298.6838 0014615 299.1099  60.8561 14.15510577584131
